VRSS-1
1 38782U 12052A   17281.78965157  .00000188  00000-0  32385-4 0  9997
2 38782  97.8759 358.6178 0023707  95.0361 265.3557 14.78871444271232
VRSS-2
1 42954U 17060A   17282.49187458 -.00000052  00000-0  00000+0 0  9991
2 42954  98.0286 355.9720 0017941 286.0490  73.8819 14.75966077    32
